[{"OBJECT_NAME":"STARLINK-34792","OBJECT_ID":"2025-167H","EPOCH":"2026-03-09T07:03:26.373600","MEAN_MOTION":15.30187314,"ECCENTRICITY":0.00013155,"INCLINATION":53.1617,"RA_OF_ASC_NODE":28.8965,"ARG_OF_PERICENTER":113.0373,"MEAN_ANOMALY":247.0767,"EPHEMERIS_TYPE":0,"CLASSIFICATION_TYPE":"U","NORAD_CAT_ID":65085,"ELEMENT_SET_NO":999,"REV_AT_EPOCH":3341,"BSTAR":0.0012552619,"MEAN_MOTION_DOT":0.00036989,"MEAN_MOTION_DDOT":0},{"OBJECT_NAME":"COSMOS 2251 DEB","OBJECT_ID":"1993-036BTX","EPOCH":"2026-02-28T17:34:44.973408","MEAN_MOTION":15.25753352,"ECCENTRICITY":0.00216382,"INCLINATION":73.9681,"RA_OF_ASC_NODE":229.3494,"ARG_OF_PERICENTER":13.6287,"MEAN_ANOMALY":346.5492,"EPHEMERIS_TYPE":0,"CLASSIFICATION_TYPE":"U","NORAD_CAT_ID":38487,"ELEMENT_SET_NO":999,"REV_AT_EPOCH":67986,"BSTAR":0.0024802785,"MEAN_MOTION_DOT":0.00064261,"MEAN_MOTION_DDOT":0}]
